LEGION 1                
1 59625U 24081A   26190.72367806  .00002195  00000+0  11505-3 0  9990
2 59625  97.5012 268.3414 0007747 292.5857  67.4556 15.16821177120953
LEGION 2                
1 59626U 24081B   26190.75398499  .00002582  00000+0  13474-3 0  9993
2 59626  97.5011 268.4683 0009935 254.8850 105.1284 15.16800248120962
LEGION 3                
1 60452U 24146A   26190.66828874  .00001987  00000+0  11640-3 0  9990
2 60452  45.0016 270.0128 0008682 305.2721  54.7345 15.15633421105431
LEGION 4                
1 60453U 24146B   26190.73408286  .00003094  00000+0  17076-3 0  9990
2 60453  45.0026   1.5280 0011446  77.6750 282.5409 15.16214770104291
LEGION 5                
1 62900U 25025A   26190.66949427  .00001692  00000+0  10001-3 0  9998
2 62900  45.0000 180.8503 0008572 274.9009  85.0891 15.16051337 77902
LEGION 6                
1 62901U 25025B   26190.20597866  .00002710  00000+0  15354-3 0  9993
2 62901  45.0010  92.4650 0010710 246.1650 113.8107 15.15664360 78978
